{
  "norad_id": 43001,
  "name": "BEIDOU-3 M1",
  "history": [
    {
      "epoch": "2026-03-28T01:15:54.969984Z",
      "apogee_km": 21563.2182247552,
      "perigee_km": 21492.90688061024,
      "latitude_deg": 6.043159525752915e-06,
      "longitude_deg": -138.71919724800742,
      "height_km": 21504.117947677343,
      "semi_major_axis_km": 27906.19955268272,
      "eccentricity": 0.00125978,
      "inclination_deg": 56.6237,
      "raan_deg": 65.755,
      "arg_perigee_deg": 313.5526,
      "mean_anomaly_deg": 46.3376,
      "mean_motion_rev_day": 1.8623089
    },
    {
      "epoch": "2026-03-29T03:02:20.537376Z",
      "apogee_km": 21563.218377756064,
      "perigee_km": 21492.90313127401,
      "latitude_deg": -2.6457467109231172e-05,
      "longitude_deg": -166.42147166933574,
      "height_km": 21504.073816512584,
      "semi_major_axis_km": 27906.197754515037,
      "eccentricity": 0.00125985,
      "inclination_deg": 56.6247,
      "raan_deg": 65.7196,
      "arg_perigee_deg": 313.6351,
      "mean_anomaly_deg": 46.2521,
      "mean_motion_rev_day": 1.86230908
    },
    {
      "epoch": "2026-03-31T19:28:23.802240Z",
      "apogee_km": 21563.259921893452,
      "perigee_km": 21492.852596300745,
      "latitude_deg": 1.957335177850291e-06,
      "longitude_deg": -55.674628220386516,
      "height_km": 21503.974428196263,
      "semi_major_axis_km": 27906.193259097097,
      "eccentricity": 0.0012615,
      "inclination_deg": 56.6271,
      "raan_deg": 65.6311,
      "arg_perigee_deg": 313.7433,
      "mean_anomaly_deg": 46.1321,
      "mean_motion_rev_day": 1.86230953
    }
  ]
}